CTC2_L_00102016-03
1 10062U 23885RD  26075.70041667  .00000000  00000+0  00000-0 0  9995
2 10062  70.0000 180.0000 0000000   0.0000   0.0000 14.60983543    11
CTC2_L_00102016-04
1 10063U 24880PH  26075.70041667  .00000000  00000+0  00000-0 0  9992
2 10063  70.0000 180.0000 0000000   0.0000  90.0000 14.60983543    11
CTC2_L_00102017-01
1 10064U 22446XB  26075.70041667  .00000000  00000+0  00000-0 0  9999
2 10064  70.0000 192.0000 0000000   0.0000 192.0000 14.60983543    18
CTC2_L_00102017-02
1 10065U 23996BY  26075.70041667  .00000000  00000+0  00000-0 0  9991
2 10065  70.0000 192.0000 0000000   0.0000 282.0000 14.60983543    19
CTC2_L_00102017-03
1 10066U 26084CK  26075.70041667  .00000000  00000+0  00000-0 0  9993
2 10066  70.0000 192.0000 0000000   0.0000  12.0000 14.60983543    11
CTC2_L_00102017-04
1 10067U 25223PV  26075.70041667  .00000000  00000+0  00000-0 0  9998
2 10067  70.0000 192.0000 0000000   0.0000 102.0000 14.60983543    12
CTC2_L_00102018-01
1 10068U 23907ZA  26075.70041667  .00000000  00000+0  00000-0 0  9996
2 10068  70.0000 204.0000 0000000   0.0000 204.0000 14.60983543    10
CTC2_L_00102018-02
1 10069U 26602BI  26075.70041667  .00000000  00000+0  00000-0 0  9992
2 10069  70.0000 204.0000 0000000   0.0000 294.0000 14.60983543    10
CTC2_L_00102018-03
1 10070U 22927UF  26075.70041667  .00000000  00000+0  00000-0 0  9990
2 10070  70.0000 204.0000 0000000   0.0000  24.0000 14.60983543    13
CTC2_L_00102018-04
1 10071U 25900HB  26075.70041667  .00000000  00000+0  00000-0 0  9995
2 10071  70.0000 204.0000 0000000   0.0000 114.0000 14.60983543    14
CTC2_L_00102019-01
1 10072U 25438UO  26075.70041667  .00000000  00000+0  00000-0 0  9992
2 10072  70.0000 216.0000 0000000   0.0000 216.0000 14.60983543    11
CTC2_L_00102019-02
1 10073U 26588BV  26075.70041667  .00000000  00000+0  00000-0 0  9990
2 10073  70.0000 216.0000 0000000   0.0000 306.0000 14.60983543    12
CTC2_L_00102019-03
1 10074U 23411YL  26075.70041667  .00000000  00000+0  00000-0 0  9993
2 10074  70.0000 216.0000 0000000   0.0000  36.0000 14.60983543    13
CTC2_L_00102019-04
1 10075U 22289CZ  26075.70041667  .00000000  00000+0  00000-0 0  9996
2 10075  70.0000 216.0000 0000000   0.0000 126.0000 14.60983543    14
CTC2_L_00102020-01
1 10076U 22959NF  26075.70041667  .00000000  00000+0  00000-0 0  9991
2 10076  70.0000 228.0000 0000000   0.0000 228.0000 14.60983543    11
CTC2_L_00102020-02
1 10077U 22290DO  26075.70041667  .00000000  00000+0  00000-0 0  9990
2 10077  70.0000 228.0000 0000000   0.0000 318.0000 14.60983543    12
CTC2_L_00102020-03
1 10078U 23917RN  26075.70041667  .00000000  00000+0  00000-0 0  9998
2 10078  70.0000 228.0000 0000000   0.0000  48.0000 14.60983543    13
CTC2_L_00102020-04
1 10079U 23712ME  26075.70041667  .00000000  00000+0  00000-0 0  9992
2 10079  70.0000 228.0000 0000000   0.0000 138.0000 14.60983543    14
CTC2_L_00102021-01
1 10080U 22948TL  26075.70041667  .00000000  00000+0  00000-0 0  9994
2 10080  70.0000 240.0000 0000000   0.0000 240.0000 14.60983543    14
CTC2_L_00102021-02
1 10081U 26316UY  26075.70041667  .00000000  00000+0  00000-0 0  9998
2 10081  70.0000 240.0000 0000000   0.0000 330.0000 14.60983543    15
CTC2_L_00102021-03
1 10082U 23923QO  26075.70041667  .00000000  00000+0  00000-0 0  9990
2 10082  70.0000 240.0000 0000000   0.0000  60.0000 14.60983543    16
CTC2_L_00102021-04
1 10083U 22093RH  26075.70041667  .00000000  00000+0  00000-0 0  9998
2 10083  70.0000 240.0000 0000000   0.0000 150.0000 14.60983543    17
CTC2_L_00102022-01
1 10084U 22178YH  26075.70041667  .00000000  00000+0  00000-0 0  9993
2 10084  70.0000 252.0000 0000000   0.0000 252.0000 14.60983543    14
CTC2_L_00102022-02
1 10085U 23090LQ  26075.70041667  .00000000  00000+0  00000-0 0  9998
2 10085  70.0000 252.0000 0000000   0.0000 342.0000 14.60983543    15
CTC2_L_00102022-03
1 10086U 26551XE  26075.70041667  .00000000  00000+0  00000-0 0  9994
2 10086  70.0000 252.0000 0000000   0.0000  72.0000 14.60983543    16
CTC2_L_00102022-04
1 10087U 25085GD  26075.70041667  .00000000  00000+0  00000-0 0  9996
2 10087  70.0000 252.0000 0000000   0.0000 162.0000 14.60983543    17
CTC2_L_00102023-01
1 10088U 26919WC  26075.70041667  .00000000  00000+0  00000-0 0  9994
2 10088  70.0000 264.0000 0000000   0.0000 264.0000 14.60983543    14
CTC2_L_00102023-02
1 10089U 25614FM  26075.70041667  .00000000  00000+0  00000-0 0  9996
2 10089  70.0000 264.0000 0000000   0.0000 354.0000 14.60983543    15
CTC2_L_00102023-03
1 10090U 24446DM  26075.70041667  .00000000  00000+0  00000-0 0  9990
2 10090  70.0000 264.0000 0000000   0.0000  84.0000 14.60983543    17
CTC2_L_00102023-04
1 10091U 24385ZI  26075.70041667  .00000000  00000+0  00000-0 0  9993
2 10091  70.0000 264.0000 0000000   0.0000 174.0000 14.60983543    18
CTC2_L_00102024-01
1 10092U 23607SE  26075.70041667  .00000000  00000+0  00000-0 0  9990
2 10092  70.0000 276.0000 0000000   0.0000 276.0000 14.60983543    15
CTC2_L_00102024-02
1 10093U 24052ZR  26075.70041667  .00000000  00000+0  00000-0 0  9996
2 10093  70.0000 276.0000 0000000   0.0000   6.0000 14.60983543    17
CTC2_L_00102024-03
1 10094U 25069KA  26075.70041667  .00000000  00000+0  00000-0 0  9996
2 10094  70.0000 276.0000 0000000   0.0000  96.0000 14.60983543    17
CTC2_L_00102024-04
1 10095U 22154S   26075.70041667  .00000000  00000+0  00000-0 0  9999
2 10095  70.0000 276.0000 0000000   0.0000 186.0000 14.60983543    18
CTC2_L_00102025-01
1 10096U 24405WF  26075.70041667  .00000000  00000+0  00000-0 0  9991
2 10096  70.0000 288.0000 0000000   0.0000 288.0000 14.60983543    15
CTC2_L_00102025-02
1 10097U 22521JY  26075.70041667  .00000000  00000+0  00000-0 0  9999
2 10097  70.0000 288.0000 0000000   0.0000  18.0000 14.60983543    17
CTC2_L_00102025-03
1 10098U 24142VF  26075.70041667  .00000000  00000+0  00000-0 0  9991
2 10098  70.0000 288.0000 0000000   0.0000 108.0000 14.60983543    18
CTC2_L_00102025-04
1 10099U 24739P   26075.70041667  .00000000  00000+0  00000-0 0  9994
2 10099  70.0000 288.0000 0000000   0.0000 198.0000 14.60983543    18
CTC2_L_00102026-01
1 10100U 23367I   26075.70041667  .00000000  00000+0  00000-0 0  9993
2 10100  70.0000 300.0000 0000000   0.0000 300.0000 14.60983543    11
CTC2_L_00102026-02
1 10101U 24365SM  26075.70041667  .00000000  00000+0  00000-0 0  9993
2 10101  70.0000 300.0000 0000000   0.0000  30.0000 14.60983543    12
CTC2_L_00102026-03
1 10102U 22378JQ  26075.70041667  .00000000  00000+0  00000-0 0  9996
2 10102  70.0000 300.0000 0000000   0.0000 120.0000 14.60983543    13
CTC2_L_00102026-04
1 10103U 23023YL  26075.70041667  .00000000  00000+0  00000-0 0  9995
2 10103  70.0000 300.0000 0000000   0.0000 210.0000 14.60983543    14
CTC2_L_00102027-01
1 10104U 26005RN  26075.70041667  .00000000  00000+0  00000-0 0  9999
2 10104  70.0000 312.0000 0000000   0.0000 312.0000 14.60983543    11
CTC2_L_00102027-02
1 10105U 26143BS  26075.70041667  .00000000  00000+0  00000-0 0  9993
2 10105  70.0000 312.0000 0000000   0.0000  42.0000 14.60983543    12
CTC2_L_00102027-03
1 10106U 22847PK  26075.70041667  .00000000  00000+0  00000-0 0  9991
2 10106  70.0000 312.0000 0000000   0.0000 132.0000 14.60983543    13
CTC2_L_00102027-04
1 10107U 22640H   26075.70041667  .00000000  00000+0  00000-0 0  9993
2 10107  70.0000 312.0000 0000000   0.0000 222.0000 14.60983543    14
CTC2_L_00102028-01
1 10108U 26588ZU  26075.70041667  .00000000  00000+0  00000-0 0  9999
2 10108  70.0000 324.0000 0000000   0.0000 324.0000 14.60983543    11
CTC2_L_00102028-02
1 10109U 25190LD  26075.70041667  .00000000  00000+0  00000-0 0  9998
2 10109  70.0000 324.0000 0000000   0.0000  54.0000 14.60983543    12
CTC2_L_00102028-03
1 10110U 26333RX  26075.70041667  .00000000  00000+0  00000-0 0  9990
2 10110  70.0000 324.0000 0000000   0.0000 144.0000 14.60983543    14
CTC2_L_00102028-04
1 10111U 22443VN  26075.70041667  .00000000  00000+0  00000-0 0  9999
2 10111  70.0000 324.0000 0000000   0.0000 234.0000 14.60983543    15
CTC2_L_00102029-01
1 10112U 23302ZH  26075.70041667  .00000000  00000+0  00000-0 0  9995
2 10112  70.0000 336.0000 0000000   0.0000 336.0000 14.60983543    12
CTC2_L_00102029-02
1 10113U 24936IA  26075.70041667  .00000000  00000+0  00000-0 0  9990
2 10113  70.0000 336.0000 0000000   0.0000  66.0000 14.60983543    13
CTC2_L_00102029-03
1 10114U 24316GC  26075.70041667  .00000000  00000+0  00000-0 0  9993
2 10114  70.0000 336.0000 0000000   0.0000 156.0000 14.60983543    14
CTC2_L_00102029-04
1 10115U 26783EC  26075.70041667  .00000000  00000+0  00000-0 0  9994
2 10115  70.0000 336.0000 0000000   0.0000 246.0000 14.60983543    15
CTC2_L_00102030-01
1 10116U 22575XY  26075.70041667  .00000000  00000+0  00000-0 0  9990
2 10116  70.0000 348.0000 0000000   0.0000 348.0000 14.60983543    12
CTC2_L_00102030-02
1 10117U 25966Y   26075.70041667  .00000000  00000+0  00000-0 0  9998
2 10117  70.0000 348.0000 0000000   0.0000  78.0000 14.60983543    13
CTC2_L_00102030-03
1 10118U 23821EO  26075.70041667  .00000000  00000+0  00000-0 0  9997
2 10118  70.0000 348.0000 0000000   0.0000 168.0000 14.60983543    14
CTC2_L_00102030-04
1 10119U 22591MM  26075.70041667  .00000000  00000+0  00000-0 0  9991
2 10119  70.0000 348.0000 0000000   0.0000 258.0000 14.60983543    15
